NORAD_CAT_ID,OBJECT_NAME,OBJECT_TYPE,EPOCH,MEAN_MOTION,ECCENTRICITY,INCLINATION,RA_OF_ASC_NODE,ARG_OF_PERICENTER,MEAN_ANOMALY,BSTAR,MEAN_MOTION_DOT,MEAN_MOTION_DDOT,TLE_LINE0,TLE_LINE1,TLE_LINE2,SEMIMAJOR_AXIS,PERIOD,APOGEE,PERIGEE,DECAYED
53275.0,STARLINK-4179,PAYLOAD,2023-06-19 18:14:13,15.08854594,9.33e-05,53.2176,326.0426,69.9445,290.1648,0.00052532,8.086e-05,0.0,0 STARLINK-4179,1 53275U 22086AK  23170.75987378  .00008086  00000-0  52532-3 0  9999,2 53275  53.2176 326.0426 0000933  69.9445 290.1648 15.08854594 51143,6917.836,95.437,540.346,539.055,0.0
53275.0,STARLINK-4179,PAYLOAD,2023-06-20 10:08:04,15.08845624,0.0001024,53.2181,323.0686,87.9842,272.1267,0.00010769,1.427e-05,0.0,0 STARLINK-4179,1 53275U 22086AK  23171.42227300  .00001427  00000-0  10769-3 0  9994,2 53275  53.2181 323.0686 0001024  87.9842 272.1267 15.08845624 51070,6917.863,95.437,540.437,539.02,0.0
53275.0,STARLINK-4179,PAYLOAD,2023-06-20 19:40:23,15.08848038,0.0001018,53.2182,321.2846,89.1674,270.9435,0.00014363,1.999e-05,0.0,0 STARLINK-4179,1 53275U 22086AK  23171.81971157  .00001999  00000-0  14363-3 0  9991,2 53275  53.2182 321.2846 0001018  89.1674 270.9435 15.08848038 51300,6917.856,95.437,540.425,539.017,0.0
53275.0,STARLINK-4179,PAYLOAD,2023-06-21 13:09:37,15.08842959,0.0001014,53.2165,318.0123,94.2853,265.8255,7.4331e-05,8.95e-06,0.0,0 STARLINK-4179,1 53275U 22086AK  23172.54835319  .00000895  00000-0  74331-4 0  9997,2 53275  53.2165 318.0123 0001014  94.2853 265.8255 15.08842959 51416,6917.871,95.437,540.438,539.035,0.0
53275.0,STARLINK-4179,PAYLOAD,2023-06-21 16:20:23,15.08847496,9.26e-05,53.2173,317.4192,81.3792,278.7305,4.3614e-05,4.07e-06,0.0,0 STARLINK-4179,1 53275U 22086AK  23172.68083126  .00000407  00000-0  43614-4 0  9992,2 53275  53.2173 317.4192 0000926  81.3792 278.7305 15.08847496 51267,6917.857,95.437,540.363,539.082,0.0
53275.0,STARLINK-4179,PAYLOAD,2023-06-22 16:11:11,15.08844217,8.21e-05,53.2171,312.9582,85.0847,275.0239,0.00016417,2.326e-05,0.0,0 STARLINK-4179,1 53275U 22086AK  23173.67443392  .00002326  00000-0  16417-3 0  9999,2 53275  53.2171 312.9582 0000821  85.0847 275.0239 15.08844217 51415,6917.867,95.437,540.3,539.165,0.0
53275.0,STARLINK-4179,PAYLOAD,2023-06-23 09:40:25,15.08840973,8.43e-05,53.2179,309.6894,87.4684,272.6405,5.499e-05,5.88e-06,0.0,0 STARLINK-4179,1 53275U 22086AK  23174.40307546  .00000588  00000-0  54990-4 0  9998,2 53275  53.2179 309.6894 0000843  87.4684 272.6405 15.08840973 51526,6917.877,95.437,540.326,539.159,0.0
53275.0,STARLINK-4179,PAYLOAD,2023-06-23 17:37:20,15.08850944,8.88e-05,53.218,308.2025,90.6761,269.4332,0.00020925,3.045e-05,0.0,0 STARLINK-4179,1 53275U 22086AK  23174.73426947  .00003045  00000-0  20925-3 0  9992,2 53275  53.2180 308.2025 0000888  90.6761 269.4332 15.08850944 51577,6917.847,95.437,540.326,539.098,0.0
53275.0,STARLINK-4179,PAYLOAD,2023-06-24 15:52:45,15.08834731,6.94e-05,53.2184,304.04,92.1738,267.9333,-4.1254e-05,-9.44e-06,0.0,0 STARLINK-4179,1 53275U 22086AK  23175.66163739 -.00000944  00000-0 -41254-4 0  9998,2 53275  53.2184 304.0400 0000694  92.1738 267.9333 15.08834731 51714,6917.896,95.438,540.242,539.281,0.0
53275.0,STARLINK-4179,PAYLOAD,2023-06-25 15:43:32,15.08845622,9.08e-05,53.2173,299.5785,91.6978,268.4118,0.0001127,1.507e-05,0.0,0 STARLINK-4179,1 53275U 22086AK  23176.65523407  .00001507  00000-0  11270-3 0  9998,2 53275  53.2173 299.5785 0000908  91.6978 268.4118 15.08845622 51868,6917.863,95.437,540.356,539.1,0.0
53275.0,STARLINK-4179,PAYLOAD,2023-06-26 01:15:51,15.08839839,0.0001283,53.2172,297.7945,79.5528,280.5609,9.4585e-05,1.218e-05,0.0,0 STARLINK-4179,1 53275U 22086AK  23177.05267804  .00001218  00000-0  94585-4 0  9999,2 53275  53.2172 297.7945 0001283  79.5528 280.5609 15.08839839 51928,6917.881,95.438,540.633,538.858,0.0
53275.0,STARLINK-4179,PAYLOAD,2023-06-26 15:34:19,15.08836407,9.19e-05,53.2165,295.1184,83.0334,277.0763,8.5431e-05,1.072e-05,0.0,0 STARLINK-4179,1 53275U 22086AK  23177.64884197  .00001072  00000-0  85431-4 0  9992,2 53275  53.2165 295.1184 0000919  83.0334 277.0763 15.08836407 52018,6917.891,95.438,540.392,539.121,0.0
53275.0,STARLINK-4179,PAYLOAD,2023-06-28 00:57:25,15.08848557,9.81e-05,53.216,288.874,71.3248,288.785,0.00044101,6.739e-05,0.0,0 STARLINK-4179,1 53275U 22086AK  23179.03988205  .00006739  00000-0  44101-3 0  9995,2 53275  53.2160 288.8740 0000981  71.3248 288.7850 15.08848557 52221,6917.854,95.437,540.398,539.041,0.0
53275.0,STARLINK-4179,PAYLOAD,2023-06-28 10:29:44,15.08841577,0.0001064,53.2168,287.091,69.6156,290.495,0.00017309,2.468e-05,0.0,0 STARLINK-4179,1 53275U 22086AK  23179.43732403  .00002468  00000-0  17309-3 0  9991,2 53275  53.2168 287.0910 0001064  69.6156 290.4950 15.08841577 52282,6917.876,95.437,540.477,539.005,0.0
53275.0,STARLINK-4179,PAYLOAD,2023-06-28 18:26:40,15.08851532,0.000106,53.217,285.6037,71.6776,288.4332,0.00031191,4.681e-05,0.0,0 STARLINK-4179,1 53275U 22086AK  23179.76851930  .00004681  00000-0  31191-3 0  9998,2 53275  53.2170 285.6037 0001060  71.6776 288.4332 15.08851532 52335,6917.845,95.437,540.443,538.977,0.0
53275.0,STARLINK-4179,PAYLOAD,2023-06-29 10:20:31,15.08841269,0.0001341,53.2157,282.6259,116.6858,243.4271,0.00010998,1.463e-05,0.0,0 STARLINK-4179,1 53275U 22086AK  23180.43092231  .00001463  00000-0  10998-3 0  9992,2 53275  53.2157 282.6259 0001341 116.6858 243.4271 15.08841269 52436,6917.877,95.437,540.669,538.814,0.0
53275.0,STARLINK-4179,PAYLOAD,2023-06-30 13:22:04,15.08849464,9.55e-05,53.2173,277.5743,84.6308,275.4793,0.00021251,3.097e-05,0.0,0 STARLINK-4179,1 53275U 22086AK  23181.55699777  .00003097  00000-0  21251-3 0  9993,2 53275  53.2173 277.5743 0000955  84.6308 275.4793 15.08849464 52607,6917.851,95.437,540.377,539.056,0.0
53275.0,STARLINK-4179,PAYLOAD,2023-06-30 22:54:24,15.08828673,0.000123,53.2174,275.7883,84.6548,275.4584,-0.00020379,-3.529e-05,0.0,0 STARLINK-4179,1 53275U 22086AK  23181.95444478 -.00003529  00000-0 -20379-3 0  9995,2 53275  53.2174 275.7883 0001230  84.6548 275.4584 15.08828673 52669,6917.915,95.438,540.631,538.929,0.0
53275.0,STARLINK-4179,PAYLOAD,2023-07-01 13:12:52,15.08835214,9.43e-05,53.2175,273.1142,91.3012,268.8088,-6.0022e-06,-3.83e-06,0.0,0 STARLINK-4179,1 53275U 22086AK  23182.55060538 -.00000383  00000-0 -60022-5 0  9999,2 53275  53.2175 273.1142 0000943  91.3012 268.8088 15.08835214 52755,6917.895,95.438,540.412,539.108,0.0
53275.0,STARLINK-4179,PAYLOAD,2023-07-02 14:39:02,15.08846479,8.41e-05,53.2168,268.3563,93.1914,266.9175,0.00057446,8.868e-05,0.0,0 STARLINK-4179,1 53275U 22086AK  23183.61044693  .00008868  00000-0  57446-3 0  9999,2 53275  53.2168 268.3563 0000841  93.1914 266.9175 15.08846479 52917,6917.861,95.437,540.307,539.144,0.0
53275.0,STARLINK-4179,PAYLOAD,2023-07-03 11:19:03,15.08850376,8.67e-05,53.2166,264.4911,92.9695,267.1397,0.00036684,5.557e-05,0.0,0 STARLINK-4179,1 53275U 22086AK  23184.47156398  .00005557  00000-0  36684-3 0  9993,2 53275  53.2166 264.4911 0000867  92.9695 267.1397 15.08850376 53045,6917.849,95.437,540.313,539.114,0.0
53275.0,STARLINK-4179,PAYLOAD,2023-07-03 22:26:45,15.08841871,9.86e-05,53.2153,262.4073,81.328,278.7824,8.0275e-05,9.9e-06,0.0,0 STARLINK-4179,1 53275U 22086AK  23184.93524595  .00000990  00000-0  80275-4 0  9994,2 53275  53.2153 262.4073 0000986  81.3280 278.7824 15.08841871 53113,6917.875,95.437,540.422,539.058,0.0
53275.0,STARLINK-4179,PAYLOAD,2023-07-04 14:20:36,15.08838215,9.17e-05,53.216,259.4358,74.8319,285.2774,5.4351e-05,5.77e-06,0.0,0 STARLINK-4179,1 53275U 22086AK  23185.59765010  .00000577  00000-0  54351-4 0  9993,2 53275  53.2160 259.4358 0000917  74.8319 285.2774 15.08838215 53213,6917.886,95.438,540.385,539.116,0.0
53275.0,STARLINK-4179,PAYLOAD,2023-07-05 22:08:19,15.08844856,9.39e-05,53.2155,253.4884,67.2118,292.8973,0.00023328,3.427e-05,0.0,0 STARLINK-4179,1 53275U 22086AK  23186.92244946  .00003427  00000-0  23328-3 0  9997,2 53275  53.2155 253.4884 0000939  67.2118 292.8973 15.08844856 53417,6917.866,95.437,540.38,539.081,0.0
53275.0,STARLINK-4179,PAYLOAD,2023-07-07 04:20:39,15.08844327,0.0001034,53.2156,247.8378,72.8819,287.2286,0.00011299,1.511e-05,0.0,0 STARLINK-4179,1 53275U 22086AK  23188.18100872  .00001511  00000-0  11299-3 0  9992,2 53275  53.2156 247.8378 0001034  72.8819 287.2286 15.08844327 53609,6917.867,95.437,540.447,539.017,0.0
53275.0,STARLINK-4179,PAYLOAD,2023-07-08 10:32:58,15.08842713,0.0001039,53.2168,242.1879,76.7915,283.3193,7.6806e-05,9.35e-06,0.0,0 STARLINK-4179,1 53275U 22086AK  23189.43956813  .00000935  00000-0  76806-4 0  9990,2 53275  53.2168 242.1879 0001039  76.7915 283.3193 15.08842713 53792,6917.872,95.437,540.456,539.018,0.0
53275.0,STARLINK-4179,PAYLOAD,2023-07-08 20:05:18,15.08831041,0.0001137,53.2168,240.404,73.6086,286.5031,-4.8013e-05,-1.052e-05,0.0,0 STARLINK-4179,1 53275U 22086AK  23189.83701880 -.00001052  00000-0 -48013-4 0  9998,2 53275  53.2168 240.4040 0001137  73.6086 286.5031 15.08831041 53852,6917.908,95.438,540.559,538.986,0.0
53275.0,STARLINK-4179,PAYLOAD,2023-07-10 03:53:00,15.08837254,9.16e-05,53.2164,234.4568,82.2955,277.8141,8.6332e-05,1.086e-05,0.0,0 STARLINK-4179,1 53275U 22086AK  23191.16181599  .00001086  00000-0  86332-4 0  9997,2 53275  53.2164 234.4568 0000916  82.2955 277.8141 15.08837254 54051,6917.889,95.438,540.387,539.12,0.0
53275.0,STARLINK-4179,PAYLOAD,2023-07-11 10:05:20,15.08842614,9.96e-05,53.2159,228.8069,81.2455,278.865,0.00016996,2.418e-05,0.0,0 STARLINK-4179,1 53275U 22086AK  23192.42037518  .00002418  00000-0  16996-3 0  9996,2 53275  53.2159 228.8069 0000996  81.2455 278.8650 15.08842614 54243,6917.872,95.437,540.426,539.048,0.0
53275.0,STARLINK-4179,PAYLOAD,2023-07-12 08:20:44,15.088425,0.0001035,53.2159,224.6439,79.0068,281.104,9.0404e-05,1.151e-05,0.0,0 STARLINK-4179,1 53275U 22086AK  23193.34773574  .00001151  00000-0  90404-4 0  9997,2 53275  53.2159 224.6439 0001035  79.0068 281.1040 15.08842500 54387,6917.873,95.437,540.454,539.022,0.0
